{"type": "FeatureCollection", "features": [ {"type": "Feature", "properties": {"norad_id": 30545, "name": "FENGYUN 1C DEB", "group": "fengyun-1c-debris", "lat": 50.843750394041976, "lon": 25.805599936165788, "alt_km": 1254.2054231716284, "timestamp": "2025-12-07T16:44:04.188399+00:00", "meta": {"OBJECT_NAME": "FENGYUN 1C DEB", "OBJECT_ID": "1999-025AKK", "EPOCH": "2025-12-06T09:13:09.444576", "MEAN_MOTION": 13.20774989, "ECCENTRICITY": 0.04728793, "INCLINATION": 98.9997, "RA_OF_ASC_NODE": 193.4513, "ARG_OF_PERICENTER": 26.2787, "MEAN_ANOMALY": 336.1516, "EPHEMERIS_TYPE": 0, "CLASSIFICATION_TYPE": "U", "NORAD_CAT_ID": 30545, "ELEMENT_SET_NO": 999, "REV_AT_EPOCH": 90846, "BSTAR": 0.00085738162, "MEAN_MOTION_DOT": 5.92e-06, "MEAN_MOTION_DDOT": 0}, "tle": {"line1": "1 30545U 99025AKK 25340.38413709  .00000592  00000+0  85738-3 0  9990", "line2": "2 30545  98.9997 193.4513 0472879  26.2787 336.1516 13.20774989908467"}}, "geometry": {"type": "Point", "coordinates": [25.805599936165788, 50.843750394041976]}}, {"type": "Feature", "properties": {"norad_id": 30546, "name": "FENGYUN 1C DEB", "group": "fengyun-1c-debris", "lat": 71.23999150824675, "lon": 44.60486020131766, "alt_km": 579.9458399443474, "timestamp": "2025-12-07T16:44:04.188410+00:00", "meta": {"OBJECT_NAME": "FENGYUN 1C DEB", "OBJECT_ID": "1999-025AKL", "EPOCH": "2025-12-06T08:45:32.733216", "MEAN_MOTION": 14.86994949, "ECCENTRICITY": 0.00924507, "INCLINATION": 98.908, "RA_OF_ASC_NODE": 195.6094, "ARG_OF_PERICENTER": 182.9184, "MEAN_ANOMALY": 356.692, "EPHEMERIS_TYPE": 0, "CLASSIFICATION_TYPE": "U", "NORAD_CAT_ID": 30546, "ELEMENT_SET_NO": 999, "REV_AT_EPOCH": 362, "BSTAR": 0.001579659, "MEAN_MOTION_DOT": 0.00015252, "MEAN_MOTION_DDOT": 0}, "tle": {"line1": "1 30546U 99025AKL 25340.36496219  .00015252  00000+0  15797-2 0  9992", "line2": "2 30546  98.9080 195.6094 0092450 182.9184 356.6920 14.86994949  3626"}}, "geometry": {"type": "Point", "coordinates": [44.60486020131766, 71.23999150824675]}}, {"type": "Feature", "properties": {"norad_id": 30547, "name": "FENGYUN 1C DEB", "group": "fengyun-1c-debris", "lat": -3.143463640378676, "lon": -174.99345899388527, "alt_km": 807.3235376592811, "timestamp": "2025-12-07T16:44:04.188420+00:00", "meta": {"OBJECT_NAME": "FENGYUN 1C DEB", "OBJECT_ID": "1999-025AKM", "EPOCH": "2025-12-06T12:29:37.311072", "MEAN_MOTION": 14.37733764, "ECCENTRICITY": 0.00950448, "INCLINATION": 98.9026, "RA_OF_ASC_NODE": 183.295, "ARG_OF_PERICENTER": 235.9211, "MEAN_ANOMALY": 153.1624, "EPHEMERIS_TYPE": 0, "CLASSIFICATION_TYPE": "U", "NORAD_CAT_ID": 30547, "ELEMENT_SET_NO": 999, "REV_AT_EPOCH": 98633, "BSTAR": 0.00056829396, "MEAN_MOTION_DOT": 1.752e-05, "MEAN_MOTION_DDOT": 0}, "tle": {"line1": "1 30547U 99025AKM 25340.52057073  .00001752  00000+0  56829-3 0  9994", "line2": "2 30547  98.9026 183.2950 0095044 235.9211 153.1624 14.37733764986334"}}, "geometry": {"type": "Point", "coordinates": [-174.99345899388527, -3.143463640378676]}}, {"type": "Feature", "properties": {"norad_id": 30548, "name": "FENGYUN 1C DEB", "group": "fengyun-1c-debris", "lat": 80.2990197565056, "lon": 151.63027683832402, "alt_km": 803.4304464292345, "timestamp": "2025-12-07T16:44:04.188433+00:00", "meta": {"OBJECT_NAME": "FENGYUN 1C DEB", "OBJECT_ID": "1999-025AKN", "EPOCH": "2025-12-03T23:10:03.063072", "MEAN_MOTION": 14.26739592, "ECCENTRICITY": 0.00690991, "INCLINATION": 99.6818, "RA_OF_ASC_NODE": 234.5003, "ARG_OF_PERICENTER": 359.7892, "MEAN_ANOMALY": 10.6493, "EPHEMERIS_TYPE": 0, "CLASSIFICATION_TYPE": "U", "NORAD_CAT_ID": 30548, "ELEMENT_SET_NO": 999, "REV_AT_EPOCH": 13970, "BSTAR": 0.0040659071, "MEAN_MOTION_DOT": 0.00010056, "MEAN_MOTION_DDOT": 0}, "tle": {"line1": "1 30548U 99025AKN 25337.96531323  .00010056  00000+0  40659-2 0  9994", "line2": "2 30548  99.6818 234.5003 0069099 359.7892  10.6493 14.26739592139707"}}, "geometry": {"type": "Point", "coordinates": [151.63027683832402, 80.2990197565056]}}, {"type": "Feature", "properties": {"norad_id": 30549, "name": "FENGYUN 1C DEB", "group": "fengyun-1c-debris", "lat": 68.97742940597121, "lon": 79.66375451584686, "alt_km": 1087.5911603527184, "timestamp": "2025-12-07T16:44:04.188444+00:00", "meta": {"OBJECT_NAME": "FENGYUN 1C DEB", "OBJECT_ID": "1999-025AKP", "EPOCH": "2025-12-03T07:39:14.923872", "MEAN_MOTION": 13.98584639, "ECCENTRICITY": 0.0288262, "INCLINATION": 98.4796, "RA_OF_ASC_NODE": 98.4482, "ARG_OF_PERICENTER": 283.4344, "MEAN_ANOMALY": 73.4847, "EPHEMERIS_TYPE": 0, "CLASSIFICATION_TYPE": "U", "NORAD_CAT_ID": 30549, "ELEMENT_SET_NO": 999, "REV_AT_EPOCH": 95162, "BSTAR": 0.0024216, "MEAN_MOTION_DOT": 4.917e-05, "MEAN_MOTION_DDOT": 0}, "tle": {"line1": "1 30549U 99025AKP 25337.31892273  .00004917  00000+0  24216-2 0  9998", "line2": "2 30549  98.4796  98.4482 0288262 283.4344  73.4847 13.98584639951629"}}, "geometry": {"type": "Point", "coordinates": [79.66375451584686, 68.97742940597121]}}, {"type": "Feature", "properties": {"norad_id": 30550, "name": "FENGYUN 1C DEB", "group": "fengyun-1c-debris", "lat": 18.513335247519734, "lon": 60.082970259748805, "alt_km": 969.6152640004875, "timestamp": "2025-12-07T16:44:04.188454+00:00", "meta": {"OBJECT_NAME": "FENGYUN 1C DEB", "OBJECT_ID": "1999-025AKQ", "EPOCH": "2025-12-06T16:15:16.529760", "MEAN_MOTION": 14.02310819, "ECCENTRICITY": 0.01334983, "INCLINATION": 99.0532, "RA_OF_ASC_NODE": 236.0093, "ARG_OF_PERICENTER": 313.9746, "MEAN_ANOMALY": 101.4642, "EPHEMERIS_TYPE": 0, "CLASSIFICATION_TYPE": "U", "NORAD_CAT_ID": 30550, "ELEMENT_SET_NO": 999, "REV_AT_EPOCH": 95310, "BSTAR": 0.0048431136, "MEAN_MOTION_DOT": 7.993e-05, "MEAN_MOTION_DDOT": 0}, "tle": {"line1": "1 30550U 99025AKQ 25340.67727465  .00007993  00000+0  48431-2 0  9995", "line2": "2 30550  99.0532 236.0093 0133498 313.9746 101.4642 14.02310819953102"}}, "geometry": {"type": "Point", "coordinates": [60.082970259748805, 18.513335247519734]}}, {"type": "Feature", "properties": {"norad_id": 30552, "name": "FENGYUN 1C DEB", "group": "fengyun-1c-debris", "lat": -55.9458659117057, "lon": 126.38639732883175, "alt_km": 709.3332493442131, "timestamp": "2025-12-07T16:44:04.188464+00:00", "meta": {"OBJECT_NAME": "FENGYUN 1C DEB", "OBJECT_ID": "1999-025AKS", "EPOCH": "2025-12-06T07:58:35.211072", "MEAN_MOTION": 14.54505106, "ECCENTRICITY": 0.00149353, "INCLINATION": 98.8353, "RA_OF_ASC_NODE": 111.6408, "ARG_OF_PERICENTER": 270.0578, "MEAN_ANOMALY": 89.8905, "EPHEMERIS_TYPE": 0, "CLASSIFICATION_TYPE": "U", "NORAD_CAT_ID": 30552, "ELEMENT_SET_NO": 999, "REV_AT_EPOCH": 97559, "BSTAR": 0.0059528635, "MEAN_MOTION_DOT": 0.00025446, "MEAN_MOTION_DDOT": 0}, "tle": {"line1": "1 30552U 99025AKS 25340.33235198  .00025446  00000+0  59529-2 0  9990", "line2": "2 30552  98.8353 111.6408 0014935 270.0578  89.8905 14.54505106975590"}}, "geometry": {"type": "Point", "coordinates": [126.38639732883175, -55.9458659117057]}}, {"type": "Feature", "properties": {"norad_id": 30553, "name": "FENGYUN 1C DEB", "group": "fengyun-1c-debris", "lat": 42.130633292805314, "lon": 67.61131943503482, "alt_km": 659.4476470726495, "timestamp": "2025-12-07T16:44:04.188475+00:00", "meta": {"OBJECT_NAME": "FENGYUN 1C DEB", "OBJECT_ID": "1999-025AKT", "EPOCH": "2025-12-06T19:19:51.434688", "MEAN_MOTION": 14.71896016, "ECCENTRICITY": 0.00213409, "INCLINATION": 99.1296, "RA_OF_ASC_NODE": 74.9754, "ARG_OF_PERICENTER": 168.3476, "MEAN_ANOMALY": 191.8226, "EPHEMERIS_TYPE": 0, "CLASSIFICATION_TYPE": "U", "NORAD_CAT_ID": 30553, "ELEMENT_SET_NO": 999, "REV_AT_EPOCH": 98386, "BSTAR": 0.0059588499, "MEAN_MOTION_DOT": 0.00037588, "MEAN_MOTION_DDOT": 0}, "tle": {"line1": "1 30553U 99025AKT 25340.80545642  .00037588  00000+0  59588-2 0  9996", "line2": "2 30553  99.1296  74.9754 0021340 168.3476 191.8226 14.71896016983861"}}, "geometry": {"type": "Point", "coordinates": [67.61131943503482, 42.130633292805314]}}, {"type": "Feature", "properties": {"norad_id": 30555, "name": "FENGYUN 1C DEB", "group": "fengyun-1c-debris", "lat": 40.3502009362538, "lon": 27.745232972884313, "alt_km": 832.1819431265221, "timestamp": "2025-12-07T16:44:04.188485+00:00", "meta": {"OBJECT_NAME": "FENGYUN 1C DEB", "OBJECT_ID": "1999-025AKV", "EPOCH": "2025-12-06T17:27:31.514976", "MEAN_MOTION": 14.20755893, "ECCENTRICITY": 0.0042201, "INCLINATION": 98.7577, "RA_OF_ASC_NODE": 34.3096, "ARG_OF_PERICENTER": 289.0355, "MEAN_ANOMALY": 193.9396, "EPHEMERIS_TYPE": 0, "CLASSIFICATION_TYPE": "U", "NORAD_CAT_ID": 30555, "ELEMENT_SET_NO": 999, "REV_AT_EPOCH": 96850, "BSTAR": 0.0022583167, "MEAN_MOTION_DOT": 4.875e-05, "MEAN_MOTION_DDOT": 0}, "tle": {"line1": "1 30555U 99025AKV 25340.72744809  .00004875  00000+0  22583-2 0  9993", "line2": "2 30555  98.7577  34.3096 0042201 289.0355 193.9396 14.20755893968501"}}, "geometry": {"type": "Point", "coordinates": [27.745232972884313, 40.3502009362538]}}, {"type": "Feature", "properties": {"norad_id": 30556, "name": "FENGYUN 1C DEB", "group": "fengyun-1c-debris", "lat": 1.969719604722367, "lon": 155.44804198774108, "alt_km": 877.7798897507055, "timestamp": "2025-12-07T16:44:04.188495+00:00", "meta": {"OBJECT_NAME": "FENGYUN 1C DEB", "OBJECT_ID": "1999-025AKW", "EPOCH": "2025-12-06T23:00:42.454944", "MEAN_MOTION": 14.01359465, "ECCENTRICITY": 0.00677821, "INCLINATION": 98.7816, "RA_OF_ASC_NODE": 334.433, "ARG_OF_PERICENTER": 253.8921, "MEAN_ANOMALY": 161.419, "EPHEMERIS_TYPE": 0, "CLASSIFICATION_TYPE": "U", "NORAD_CAT_ID": 30556, "ELEMENT_SET_NO": 999, "REV_AT_EPOCH": 96176, "BSTAR": 0.00045897534, "MEAN_MOTION_DOT": 6.63e-06, "MEAN_MOTION_DDOT": 0}, "tle": {"line1": "1 30556U 99025AKW 25340.95882471  .00000663  00000+0  45898-3 0  9993", "line2": "2 30556  98.7816 334.4330 0067782 253.8921 161.4190 14.01359465961769"}}, "geometry": {"type": "Point", "coordinates": [155.44804198774108, 1.969719604722367]}}]}